[{"OBJECT_NAME":"STARLINK-35698","OBJECT_ID":"2025-262AB","EPOCH":"2025-11-26T00:00:05.999616","MEAN_MOTION":15.8585945,"ECCENTRICITY":0.00016748,"INCLINATION":42.9978,"RA_OF_ASC_NODE":170.5258,"ARG_OF_PERICENTER":278.7813,"MEAN_ANOMALY":226.1625,"EPHEMERIS_TYPE":0,"CLASSIFICATION_TYPE":"U","NORAD_CAT_ID":66481,"ELEMENT_SET_NO":999,"REV_AT_EPOCH":294,"BSTAR":-0.0068495756,"MEAN_MOTION_DOT":-0.01528629,"MEAN_MOTION_DDOT":0},{"OBJECT_NAME":"STARLINK-35648","OBJECT_ID":"2025-262AC","EPOCH":"2025-11-26T00:00:05.999616","MEAN_MOTION":15.85865733,"ECCENTRICITY":0.0001587,"INCLINATION":42.9978,"RA_OF_ASC_NODE":170.5196,"ARG_OF_PERICENTER":281.7321,"MEAN_ANOMALY":225.8009,"EPHEMERIS_TYPE":0,"CLASSIFICATION_TYPE":"U","NORAD_CAT_ID":66482,"ELEMENT_SET_NO":999,"REV_AT_EPOCH":279,"BSTAR":-0.0069674856,"MEAN_MOTION_DOT":-0.01552101,"MEAN_MOTION_DDOT":0},{"OBJECT_NAME":"STARLINK-35654","OBJECT_ID":"2025-262AD","EPOCH":"2025-11-26T00:00:05.999616","MEAN_MOTION":15.85874957,"ECCENTRICITY":0.00016252,"INCLINATION":42.9976,"RA_OF_ASC_NODE":170.5129,"ARG_OF_PERICENTER":281.0841,"MEAN_ANOMALY":228.9191,"EPHEMERIS_TYPE":0,"CLASSIFICATION_TYPE":"U","NORAD_CAT_ID":66483,"ELEMENT_SET_NO":999,"REV_AT_EPOCH":294,"BSTAR":-0.0071120638,"MEAN_MOTION_DOT":-0.01580978,"MEAN_MOTION_DDOT":0},{"OBJECT_NAME":"STARLINK-35371","OBJECT_ID":"2025-262AE","EPOCH":"2025-11-26T00:00:05.999616","MEAN_MOTION":15.85884521,"ECCENTRICITY":0.00016694,"INCLINATION":42.9979,"RA_OF_ASC_NODE":170.5065,"ARG_OF_PERICENTER":278.1292,"MEAN_ANOMALY":234.5219,"EPHEMERIS_TYPE":0,"CLASSIFICATION_TYPE":"U","NORAD_CAT_ID":66484,"ELEMENT_SET_NO":999,"REV_AT_EPOCH":294,"BSTAR":-0.0073660043,"MEAN_MOTION_DOT":-0.01630878,"MEAN_MOTION_DDOT":0},{"OBJECT_NAME":"STARLINK-34774","OBJECT_ID":"2025-263A","EPOCH":"2025-11-26T04:00:03.000096","MEAN_MOTION":15.90156012,"ECCENTRICITY":0.0001975,"INCLINATION":42.9983,"RA_OF_ASC_NODE":224.4849,"ARG_OF_PERICENTER":264.3181,"MEAN_ANOMALY":26.7065,"EPHEMERIS_TYPE":0,"CLASSIFICATION_TYPE":"U","NORAD_CAT_ID":66485,"ELEMENT_SET_NO":999,"REV_AT_EPOCH":297,"BSTAR":-0.0039352,"MEAN_MOTION_DOT":-0.01092654,"MEAN_MOTION_DDOT":0},{"OBJECT_NAME":"STARLINK-34844","OBJECT_ID":"2025-263B","EPOCH":"2025-11-26T04:00:03.000096","MEAN_MOTION":15.90144145,"ECCENTRICITY":0.0001877,"INCLINATION":42.9977,"RA_OF_ASC_NODE":224.4725,"ARG_OF_PERICENTER":269.4843,"MEAN_ANOMALY":26.2431,"EPHEMERIS_TYPE":0,"CLASSIFICATION_TYPE":"U","NORAD_CAT_ID":66486,"ELEMENT_SET_NO":999,"REV_AT_EPOCH":292,"BSTAR":-0.0038893,"MEAN_MOTION_DOT":-0.0108069,"MEAN_MOTION_DDOT":0},{"OBJECT_NAME":"STARLINK-34733","OBJECT_ID":"2025-263C","EPOCH":"2025-11-26T00:00:05.999616","MEAN_MOTION":15.90664428,"ECCENTRICITY":0.00018359,"INCLINATION":42.9979,"RA_OF_ASC_NODE":225.4991,"ARG_OF_PERICENTER":270.8778,"MEAN_ANOMALY":152.7925,"EPHEMERIS_TYPE":0,"CLASSIFICATION_TYPE":"U","NORAD_CAT_ID":66487,"ELEMENT_SET_NO":999,"REV_AT_EPOCH":294,"BSTAR":-0.0041911549,"MEAN_MOTION_DOT":-0.01181912,"MEAN_MOTION_DDOT":0},{"OBJECT_NAME":"STARLINK-35515","OBJECT_ID":"2025-263D","EPOCH":"2025-11-26T04:00:03.000096","MEAN_MOTION":15.90232755,"ECCENTRICITY":0.0001855,"INCLINATION":42.9981,"RA_OF_ASC_NODE":224.4585,"ARG_OF_PERICENTER":270.3836,"MEAN_ANOMALY":30.9307,"EPHEMERIS_TYPE":0,"CLASSIFICATION_TYPE":"U","NORAD_CAT_ID":66488,"ELEMENT_SET_NO":999,"REV_AT_EPOCH":297,"BSTAR":-0.0040675,"MEAN_MOTION_DOT":-0.01128878,"MEAN_MOTION_DDOT":0},{"OBJECT_NAME":"STARLINK-35696","OBJECT_ID":"2025-263E","EPOCH":"2025-11-26T04:00:03.000096","MEAN_MOTION":15.90292059,"ECCENTRICITY":0.0001897,"INCLINATION":42.9979,"RA_OF_ASC_NODE":224.4518,"ARG_OF_PERICENTER":270.4978,"MEAN_ANOMALY":33.4532,"EPHEMERIS_TYPE":0,"CLASSIFICATION_TYPE":"U","NORAD_CAT_ID":66489,"ELEMENT_SET_NO":999,"REV_AT_EPOCH":297,"BSTAR":-0.0042817,"MEAN_MOTION_DOT":-0.01184046,"MEAN_MOTION_DDOT":0},{"OBJECT_NAME":"STARLINK-35693","OBJECT_ID":"2025-263F","EPOCH":"2025-11-26T04:00:03.000096","MEAN_MOTION":15.90335526,"ECCENTRICITY":0.0001942,"INCLINATION":42.9981,"RA_OF_ASC_NODE":224.4437,"ARG_OF_PERICENTER":269.8868,"MEAN_ANOMALY":37.2107,"EPHEMERIS_TYPE":0,"CLASSIFICATION_TYPE":"U","NORAD_CAT_ID":66490,"ELEMENT_SET_NO":999,"REV_AT_EPOCH":297,"BSTAR":-0.0044666,"MEAN_MOTION_DOT":-0.01255511,"MEAN_MOTION_DDOT":0},{"OBJECT_NAME":"STARLINK-35663","OBJECT_ID":"2025-263G","EPOCH":"2025-11-26T04:00:03.000096","MEAN_MOTION":15.90406514,"ECCENTRICITY":0.0002069,"INCLINATION":42.998,"RA_OF_ASC_NODE":224.4319,"ARG_OF_PERICENTER":265.3699,"MEAN_ANOMALY":46.3641,"EPHEMERIS_TYPE":0,"CLASSIFICATION_TYPE":"U","NORAD_CAT_ID":66491,"ELEMENT_SET_NO":999,"REV_AT_EPOCH":297,"BSTAR":-0.0046988,"MEAN_MOTION_DOT":-0.01317489,"MEAN_MOTION_DDOT":0},{"OBJECT_NAME":"STARLINK-35673","OBJECT_ID":"2025-263H","EPOCH":"2025-11-26T04:00:03.000096","MEAN_MOTION":15.9042271,"ECCENTRICITY":0.0001586,"INCLINATION":42.998,"RA_OF_ASC_NODE":224.4258,"ARG_OF_PERICENTER":275.3208,"MEAN_ANOMALY":38.8459,"EPHEMERIS_TYPE":0,"CLASSIFICATION_TYPE":"U","NORAD_CAT_ID":66492,"ELEMENT_SET_NO":999,"REV_AT_EPOCH":297,"BSTAR":-0.0046732,"MEAN_MOTION_DOT":-0.01311749,"MEAN_MOTION_DDOT":0},{"OBJECT_NAME":"STARLINK-35597","OBJECT_ID":"2025-263J","EPOCH":"2025-11-26T04:00:03.000096","MEAN_MOTION":15.90432707,"ECCENTRICITY":0.0002021,"INCLINATION":42.9981,"RA_OF_ASC_NODE":224.4183,"ARG_OF_PERICENTER":273.5119,"MEAN_ANOMALY":43.5729,"EPHEMERIS_TYPE":0,"CLASSIFICATION_TYPE":"U","NORAD_CAT_ID":66493,"ELEMENT_SET_NO":999,"REV_AT_EPOCH":297,"BSTAR":-0.0047026,"MEAN_MOTION_DOT":-0.01319965,"MEAN_MOTION_DDOT":0},{"OBJECT_NAME":"STARLINK-35689","OBJECT_ID":"2025-263K","EPOCH":"2025-11-26T04:00:03.000096","MEAN_MOTION":15.90369907,"ECCENTRICITY":0.0002036,"INCLINATION":42.9981,"RA_OF_ASC_NODE":224.438,"ARG_OF_PERICENTER":272.2012,"MEAN_ANOMALY":37.2002,"EPHEMERIS_TYPE":0,"CLASSIFICATION_TYPE":"U","NORAD_CAT_ID":66494,"ELEMENT_SET_NO":999,"REV_AT_EPOCH":297,"BSTAR":-0.0045577,"MEAN_MOTION_DOT":-0.01280288,"MEAN_MOTION_DDOT":0},{"OBJECT_NAME":"STARLINK-35832","OBJECT_ID":"2025-263L","EPOCH":"2025-11-26T04:00:03.000096","MEAN_MOTION":15.90421257,"ECCENTRICITY":0.0001938,"INCLINATION":42.9981,"RA_OF_ASC_NODE":224.4099,"ARG_OF_PERICENTER":264.7219,"MEAN_ANOMALY":55.702,"EPHEMERIS_TYPE":0,"CLASSIFICATION_TYPE":"U","NORAD_CAT_ID":66495,"ELEMENT_SET_NO":999,"REV_AT_EPOCH":297,"BSTAR":-0.0046525,"MEAN_MOTION_DOT":-0.01306817,"MEAN_MOTION_DDOT":0},{"OBJECT_NAME":"STARLINK-35909","OBJECT_ID":"2025-263M","EPOCH":"2025-11-26T04:00:03.000096","MEAN_MOTION":15.90443311,"ECCENTRICITY":0.0001911,"INCLINATION":42.9983,"RA_OF_ASC_NODE":224.4024,"ARG_OF_PERICENTER":275.6225,"MEAN_ANOMALY":47.8147,"EPHEMERIS_TYPE":0,"CLASSIFICATION_TYPE":"U","NORAD_CAT_ID":66496,"ELEMENT_SET_NO":999,"REV_AT_EPOCH":297,"BSTAR":-0.0047589,"MEAN_MOTION_DOT":-0.01334438,"MEAN_MOTION_DDOT":0}]
